[{"OBJECT_NAME":"QIANFAN-52","OBJECT_ID":"2024-232S","EPOCH":"2026-03-09T21:39:20.659680","MEAN_MOTION":13.51001476,"ECCENTRICITY":0.00137563,"INCLINATION":89.0061,"RA_OF_ASC_NODE":32.3107,"ARG_OF_PERICENTER":306.4219,"MEAN_ANOMALY":53.5664,"EPHEMERIS_TYPE":0,"CLASSIFICATION_TYPE":"U","NORAD_CAT_ID":62253,"ELEMENT_SET_NO":999,"REV_AT_EPOCH":7971,"BSTAR":0.00012726091,"MEAN_MOTION_DOT":9.4e-7,"MEAN_MOTION_DDOT":0},{"OBJECT_NAME":"PORCUPINE 2","OBJECT_ID":"1965-065J","EPOCH":"2026-03-09T21:32:06.065952","MEAN_MOTION":13.36238728,"ECCENTRICITY":0.00704283,"INCLINATION":90.0251,"RA_OF_ASC_NODE":211.7883,"ARG_OF_PERICENTER":25.3019,"MEAN_ANOMALY":92.8087,"EPHEMERIS_TYPE":0,"CLASSIFICATION_TYPE":"U","NORAD_CAT_ID":1577,"ELEMENT_SET_NO":999,"REV_AT_EPOCH":94939,"BSTAR":0.00022183895,"MEAN_MOTION_DOT":1.25e-6,"MEAN_MOTION_DDOT":0}]
